[
  {
    "OBJECT_NAME": "STARLINK-11668 [DTC]",
    "OBJECT_ID": "2025-075K",
    "EPOCH": "2025-05-10T14:00:01.999872",
    "MEAN_MOTION": 15.77834606,
    "ECCENTRICITY": 0.0001487,
    "INCLINATION": 42.9994,
    "RA_OF_ASC_NODE": 182.4191,
    "ARG_OF_PERICENTER": 284.0806,
    "MEAN_ANOMALY": 314.4487,
    "EPHEMERIS_TYPE": 0,
    "CLASSIFICATION_TYPE": "U",
    "NORAD_CAT_ID": 63557,
    "ELEMENT_SET_NO": 999,
    "REV_AT_EPOCH": 555,
    "BSTAR": 0.000174,
    "MEAN_MOTION_DOT": 0.00029857,
    "MEAN_MOTION_DDOT": 0
  },
  {
    "OBJECT_NAME": "STARLINK-11657 [DTC]",
    "OBJECT_ID": "2025-075L",
    "EPOCH": "2025-05-10T22:00:01.999584",
    "MEAN_MOTION": 15.77861808,
    "ECCENTRICITY": 0.0001501,
    "INCLINATION": 42.9994,
    "RA_OF_ASC_NODE": 180.3157,
    "ARG_OF_PERICENTER": 271.1073,
    "MEAN_ANOMALY": 90.9056,
    "EPHEMERIS_TYPE": 0,
    "CLASSIFICATION_TYPE": "U",
    "NORAD_CAT_ID": 63558,
    "ELEMENT_SET_NO": 999,
    "REV_AT_EPOCH": 560,
    "BSTAR": -9.0505e-05,
    "MEAN_MOTION_DOT": -0.00016222,
    "MEAN_MOTION_DDOT": 0
  },
  {
    "OBJECT_NAME": "STARLINK-11606 [DTC]",
    "OBJECT_ID": "2025-075M",
    "EPOCH": "2025-05-10T22:00:01.999584",
    "MEAN_MOTION": 15.77868252,
    "ECCENTRICITY": 0.0001439,
    "INCLINATION": 42.9993,
    "RA_OF_ASC_NODE": 180.2466,
    "ARG_OF_PERICENTER": 268.8517,
    "MEAN_ANOMALY": 120.909,
    "EPHEMERIS_TYPE": 0,
    "CLASSIFICATION_TYPE": "U",
    "NORAD_CAT_ID": 63559,
    "ELEMENT_SET_NO": 999,
    "REV_AT_EPOCH": 560,
    "BSTAR": -0.00014593,
    "MEAN_MOTION_DOT": -0.00025829,
    "MEAN_MOTION_DDOT": 0
  },
  {
    "OBJECT_NAME": "STARLINK-11592 [DTC]",
    "OBJECT_ID": "2025-075N",
    "EPOCH": "2025-05-10T22:00:01.999584",
    "MEAN_MOTION": 15.77852671,
    "ECCENTRICITY": 0.0001633,
    "INCLINATION": 42.9995,
    "RA_OF_ASC_NODE": 180.176,
    "ARG_OF_PERICENTER": 268.123,
    "MEAN_ANOMALY": 149.3951,
    "EPHEMERIS_TYPE": 0,
    "CLASSIFICATION_TYPE": "U",
    "NORAD_CAT_ID": 63560,
    "ELEMENT_SET_NO": 999,
    "REV_AT_EPOCH": 560,
    "BSTAR": -1.1886e-06,
    "MEAN_MOTION_DOT": -7.06e-06,
    "MEAN_MOTION_DDOT": 0
  },
  {
    "OBJECT_NAME": "STARLINK-32953",
    "OBJECT_ID": "2025-075P",
    "EPOCH": "2025-05-10T14:00:01.999872",
    "MEAN_MOTION": 15.40670243,
    "ECCENTRICITY": 0.0001367,
    "INCLINATION": 42.9996,
    "RA_OF_ASC_NODE": 185.817,
    "ARG_OF_PERICENTER": 275.7599,
    "MEAN_ANOMALY": 27.0462,
    "EPHEMERIS_TYPE": 0,
    "CLASSIFICATION_TYPE": "U",
    "NORAD_CAT_ID": 63561,
    "ELEMENT_SET_NO": 999,
    "REV_AT_EPOCH": 552,
    "BSTAR": 0.0011315,
    "MEAN_MOTION_DOT": 0.00047208,
    "MEAN_MOTION_DDOT": 0
  },
  {
    "OBJECT_NAME": "STARLINK-32951",
    "OBJECT_ID": "2025-075Q",
    "EPOCH": "2025-05-10T22:00:01.999584",
    "MEAN_MOTION": 15.43211297,
    "ECCENTRICITY": 0.0001297,
    "INCLINATION": 42.9995,
    "RA_OF_ASC_NODE": 182.6114,
    "ARG_OF_PERICENTER": 276.0082,
    "MEAN_ANOMALY": 236.881,
    "EPHEMERIS_TYPE": 0,
    "CLASSIFICATION_TYPE": "U",
    "NORAD_CAT_ID": 63562,
    "ELEMENT_SET_NO": 999,
    "REV_AT_EPOCH": 560,
    "BSTAR": -0.037541,
    "MEAN_MOTION_DOT": -0.01537742,
    "MEAN_MOTION_DDOT": 0
  },
  {
    "OBJECT_NAME": "STARLINK-32958",
    "OBJECT_ID": "2025-075R",
    "EPOCH": "2025-05-10T22:00:01.999584",
    "MEAN_MOTION": 15.40696581,
    "ECCENTRICITY": 0.0001598,
    "INCLINATION": 42.9998,
    "RA_OF_ASC_NODE": 183.9838,
    "ARG_OF_PERICENTER": 271.3986,
    "MEAN_ANOMALY": 45.1083,
    "EPHEMERIS_TYPE": 0,
    "CLASSIFICATION_TYPE": "U",
    "NORAD_CAT_ID": 63563,
    "ELEMENT_SET_NO": 999,
    "REV_AT_EPOCH": 558,
    "BSTAR": -0.00022521,
    "MEAN_MOTION_DOT": -9.698e-05,
    "MEAN_MOTION_DDOT": 0
  },
  {
    "OBJECT_NAME": "STARLINK-32928",
    "OBJECT_ID": "2025-075S",
    "EPOCH": "2025-05-10T14:00:01.999872",
    "MEAN_MOTION": 15.40621729,
    "ECCENTRICITY": 0.0001179,
    "INCLINATION": 42.9993,
    "RA_OF_ASC_NODE": 185.6961,
    "ARG_OF_PERICENTER": 271.6728,
    "MEAN_ANOMALY": 80.9019,
    "EPHEMERIS_TYPE": 0,
    "CLASSIFICATION_TYPE": "U",
    "NORAD_CAT_ID": 63564,
    "ELEMENT_SET_NO": 999,
    "REV_AT_EPOCH": 552,
    "BSTAR": 0.0013499,
    "MEAN_MOTION_DOT": 0.00056355,
    "MEAN_MOTION_DDOT": 0
  },
  {
    "OBJECT_NAME": "STARLINK-32687",
    "OBJECT_ID": "2025-075T",
    "EPOCH": "2025-05-10T14:00:01.999872",
    "MEAN_MOTION": 15.48603437,
    "ECCENTRICITY": 0.0001354,
    "INCLINATION": 42.9994,
    "RA_OF_ASC_NODE": 184.4904,
    "ARG_OF_PERICENTER": 280.1304,
    "MEAN_ANOMALY": 200.0147,
    "EPHEMERIS_TYPE": 0,
    "CLASSIFICATION_TYPE": "U",
    "NORAD_CAT_ID": 63565,
    "ELEMENT_SET_NO": 999,
    "REV_AT_EPOCH": 554,
    "BSTAR": -0.029395,
    "MEAN_MOTION_DOT": -0.01459728,
    "MEAN_MOTION_DDOT": 0
  },
  {
    "OBJECT_NAME": "STARLINK-32950",
    "OBJECT_ID": "2025-075U",
    "EPOCH": "2025-05-10T22:00:01.999584",
    "MEAN_MOTION": 15.50780168,
    "ECCENTRICITY": 0.0001962,
    "INCLINATION": 42.9996,
    "RA_OF_ASC_NODE": 181.3585,
    "ARG_OF_PERICENTER": 261.3064,
    "MEAN_ANOMALY": 37.263,
    "EPHEMERIS_TYPE": 0,
    "CLASSIFICATION_TYPE": "U",
    "NORAD_CAT_ID": 63566,
    "ELEMENT_SET_NO": 999,
    "REV_AT_EPOCH": 560,
    "BSTAR": -0.01121,
    "MEAN_MOTION_DOT": -0.00613334,
    "MEAN_MOTION_DDOT": 0
  },
  {
    "OBJECT_NAME": "STARLINK-32954",
    "OBJECT_ID": "2025-075V",
    "EPOCH": "2025-05-10T14:00:01.999872",
    "MEAN_MOTION": 15.50535319,
    "ECCENTRICITY": 0.0001169,
    "INCLINATION": 42.9994,
    "RA_OF_ASC_NODE": 184.4759,
    "ARG_OF_PERICENTER": 287.0398,
    "MEAN_ANOMALY": 199.0392,
    "EPHEMERIS_TYPE": 0,
    "CLASSIFICATION_TYPE": "U",
    "NORAD_CAT_ID": 63567,
    "ELEMENT_SET_NO": 999,
    "REV_AT_EPOCH": 554,
    "BSTAR": -0.027781,
    "MEAN_MOTION_DOT": -0.01476134,
    "MEAN_MOTION_DDOT": 0
  },
  {
    "OBJECT_NAME": "STARLINK-32940",
    "OBJECT_ID": "2025-075W",
    "EPOCH": "2025-05-10T22:00:01.999584",
    "MEAN_MOTION": 15.48529127,
    "ECCENTRICITY": 0.0001164,
    "INCLINATION": 42.9996,
    "RA_OF_ASC_NODE": 182.5341,
    "ARG_OF_PERICENTER": 268.2866,
    "MEAN_ANOMALY": 276.4068,
    "EPHEMERIS_TYPE": 0,
    "CLASSIFICATION_TYPE": "U",
    "NORAD_CAT_ID": 63568,
    "ELEMENT_SET_NO": 999,
    "REV_AT_EPOCH": 559,
    "BSTAR": -0.031333,
    "MEAN_MOTION_DOT": -0.01542957,
    "MEAN_MOTION_DDOT": 0
  },
  {
    "OBJECT_NAME": "STARLINK-32959",
    "OBJECT_ID": "2025-076A",
    "EPOCH": "2025-05-10T22:00:01.999584",
    "MEAN_MOTION": 15.40669345,
    "ECCENTRICITY": 0.0001842,
    "INCLINATION": 43.0001,
    "RA_OF_ASC_NODE": 238.3111,
    "ARG_OF_PERICENTER": 269.2663,
    "MEAN_ANOMALY": 265.5276,
    "EPHEMERIS_TYPE": 0,
    "CLASSIFICATION_TYPE": "U",
    "NORAD_CAT_ID": 63569,
    "ELEMENT_SET_NO": 999,
    "REV_AT_EPOCH": 521,
    "BSTAR": 0.00085343,
    "MEAN_MOTION_DOT": 0.00035476,
    "MEAN_MOTION_DDOT": 0
  },
  {
    "OBJECT_NAME": "STARLINK-32956",
    "OBJECT_ID": "2025-076B",
    "EPOCH": "2025-05-10T22:00:01.999584",
    "MEAN_MOTION": 15.40670544,
    "ECCENTRICITY": 0.0001624,
    "INCLINATION": 43.0001,
    "RA_OF_ASC_NODE": 238.2808,
    "ARG_OF_PERICENTER": 279.0258,
    "MEAN_ANOMALY": 268.22,
    "EPHEMERIS_TYPE": 0,
    "CLASSIFICATION_TYPE": "U",
    "NORAD_CAT_ID": 63570,
    "ELEMENT_SET_NO": 999,
    "REV_AT_EPOCH": 537,
    "BSTAR": 0.00091976,
    "MEAN_MOTION_DOT": 0.00038272,
    "MEAN_MOTION_DDOT": 0
  }
]