STARLINK-11668 [DTC]    
1 63557U 25075K   25130.58335648  .00029857  00000+0  17400-3 0  9993
2 63557  42.9994 182.4191 0001487 284.0806 314.4487 15.77834606  5552
STARLINK-11657 [DTC]    
1 63558U 25075L   25130.91668981 -.00016222  00000+0 -90505-4 0  9992
2 63558  42.9994 180.3157 0001501 271.1073  90.9056 15.77861808  5600
STARLINK-11606 [DTC]    
1 63559U 25075M   25130.91668981 -.00025829  00000+0 -14593-3 0  9998
2 63559  42.9993 180.2466 0001439 268.8517 120.9090 15.77868252  5600
STARLINK-11592 [DTC]    
1 63560U 25075N   25130.91668981 -.00000706  00000+0 -11886-5 0  9991
2 63560  42.9995 180.1760 0001633 268.1230 149.3951 15.77852671  5600
STARLINK-32953          
1 63561U 25075P   25130.58335648  .00047208  00000+0  11315-2 0  9996
2 63561  42.9996 185.8170 0001367 275.7599  27.0462 15.40670243  5528
STARLINK-32951          
1 63562U 25075Q   25130.91668981 -.01537742  00000+0 -37541-1 0  9991
2 63562  42.9995 182.6114 0001297 276.0082 236.8810 15.43211297  5603
STARLINK-32958          
1 63563U 25075R   25130.91668981 -.00009698  00000+0 -22521-3 0  9999
2 63563  42.9998 183.9838 0001598 271.3986  45.1083 15.40696581  5589
STARLINK-32928          
1 63564U 25075S   25130.58335648  .00056355  00000+0  13499-2 0  9997
2 63564  42.9993 185.6961 0001179 271.6728  80.9019 15.40621729  5525
STARLINK-32687          
1 63565U 25075T   25130.58335648 -.01459728  00000+0 -29395-1 0  9993
2 63565  42.9994 184.4904 0001354 280.1304 200.0147 15.48603437  5544
STARLINK-32950          
1 63566U 25075U   25130.91668981 -.00613334  00000+0 -11210-1 0  9991
2 63566  42.9996 181.3585 0001962 261.3064  37.2630 15.50780168  5601
STARLINK-32954          
1 63567U 25075V   25130.58335648 -.01476134  00000+0 -27781-1 0  9992
2 63567  42.9994 184.4759 0001169 287.0398 199.0392 15.50535319  5542
STARLINK-32940          
1 63568U 25075W   25130.91668981 -.01542957  00000+0 -31333-1 0  9994
2 63568  42.9996 182.5341 0001164 268.2866 276.4068 15.48529127  5599
STARLINK-32959          
1 63569U 25076A   25130.91668981  .00035476  00000+0  85343-3 0  9998
2 63569  43.0001 238.3111 0001842 269.2663 265.5276 15.40669345  5211
STARLINK-32956          
1 63570U 25076B   25130.91668981  .00038272  00000+0  91976-3 0  9996
2 63570  43.0001 238.2808 0001624 279.0258 268.2200 15.40670544  5379
